"{\n    \"CCSDS_OMM_VERS\": \"2.0\",\n    \"COMMENT\": \"GENERATED VIA SPACE-TRACK.ORG API\",\n    \"CREATION_DATE\": \"2025-08-31T17:37:22\",\n    \"ORIGINATOR\": \"18 SPCS\",\n    \"OBJECT_NAME\": \"NAVSTAR 74 (USA 262)\",\n    \"OBJECT_ID\": \"2015-033A\",\n    \"CENTER_NAME\": \"EARTH\",\n    \"REF_FRAME\": \"TEME\",\n    \"TIME_SYSTEM\": \"UTC\",\n    \"MEAN_ELEMENT_THEORY\": \"SGP4\",\n    \"EPOCH\": \"2025-08-31T01:10:12.753408\",\n    \"MEAN_MOTION\": \"2.0057103655\",\n    \"ECCENTRICITY\": \"0.010521863\",\n    \"INCLINATION\": \"54.215794\",\n    \"RA_OF_ASC_NODE\": \"279.03749\",\n    \"ARG_OF_PERICENTER\": \"25.25649\",\n    \"MEAN_ANOMALY\": \"335.31688\",\n    \"EPHEMERIS_TYPE\": \"0\",\n    \"CLASSIFICATION_TYPE\": \"U\",\n    \"NORAD_CAT_ID\": \"40730\",\n    \"ELEMENT_SET_NO\": \"999\",\n    \"REV_AT_EPOCH\": \"7417\",\n    \"BSTAR\": \"0\",\n    \"MEAN_MOTION_DOT\": \"0.000000107251\",\n    \"MEAN_MOTION_DDOT\": \"0\",\n    \"TLE_LINE0\": \"0 NAVSTAR 74 (USA 262)\",\n    \"TLE_LINE1\": \"1 40730U 15033A   25243.04875872  .00000011  00000-0  00000-0 0  9995\",\n    \"TLE_LINE2\": \"2 40730  54.2158 279.0375 0105219  25.2565 335.3169  2.00571037 74171\",\n    \"SEMIMAJOR_AXIS\": \"26559.692\",\n    \"PERIOD\": \"717.950\",\n    \"APOAPSIS\": \"20461.014\",\n    \"PERIAPSIS\": \"19902.099\",\n    \"OBJECT_TYPE\": \"PAYLOAD\",\n    \"DECAYED\": \"0\"\n}"